{
    "links": {
        "self": "http://www.neowsapp.com/rest/v1/neo/3616702?api_key=iIulBulltgU6a56xZRHN4H3l9WmuAYTsLGpBGhQ2"
    },
    "id": "3616702",
    "neo_reference_id": "3616702",
    "name": "(2012 VT6)",
    "designation": "2012 VT6",
    "nasa_jpl_url": "http://ssd.jpl.nasa.gov/sbdb.cgi?sstr=3616702",
    "absolute_magnitude_h": 23.1,
    "estimated_diameter": {
        "kilometers": {
            "estimated_diameter_min": 0.063760979,
            "estimated_diameter_max": 0.1425738833
        },
        "meters": {
            "estimated_diameter_min": 63.7609789875,
            "estimated_diameter_max": 142.5738833281
        },
        "miles": {
            "estimated_diameter_min": 0.0396192233,
            "estimated_diameter_max": 0.0885912765
        },
        "feet": {
            "estimated_diameter_min": 209.1895703015,
            "estimated_diameter_max": 467.7620993781
        }
    },
    "is_potentially_hazardous_asteroid": false,
    "close_approach_data": [
        {
            "close_approach_date": "2009-05-23",
            "close_approach_date_full": "2009-May-23 03:17",
            "epoch_date_close_approach": 1243048620000,
            "relative_velocity": {
                "kilometers_per_second": "18.548407633",
                "kilometers_per_hour": "66774.267478818",
                "miles_per_hour": "41490.9330342689"
            },
            "miss_distance": {
                "astronomical": "0.3959870594",
                "lunar": "154.0389661066",
                "kilometers": "59238820.633803478",
                "miles": "36809296.2720968764"
            },
            "orbiting_body": "Earth"
        },
        {
            "close_approach_date": "2012-05-16",
            "close_approach_date_full": "2012-May-16 23:00",
            "epoch_date_close_approach": 1337209200000,
            "relative_velocity": {
                "kilometers_per_second": "6.3234886522",
                "kilometers_per_hour": "22764.5591477617",
                "miles_per_hour": "14145.0117660078"
            },
            "miss_distance": {
                "astronomical": "0.3245196282",
                "lunar": "126.2381353698",
                "kilometers": "48547445.151911934",
                "miles": "30165983.6021513292"
            },
            "orbiting_body": "Earth"
        },
        {
            "close_approach_date": "2012-10-08",
            "close_approach_date_full": "2012-Oct-08 12:52",
            "epoch_date_close_approach": 1349700720000,
            "relative_velocity": {
                "kilometers_per_second": "8.6020999815",
                "kilometers_per_hour": "30967.5599334785",
                "miles_per_hour": "19242.0374486661"
            },
            "miss_distance": {
                "astronomical": "0.0834158215",
                "lunar": "32.4487545635",
                "kilometers": "12478829.220700205",
                "miles": "7753984.920684629"
            },
            "orbiting_body": "Earth"
        }
    ],
    "orbital_data": {
        "orbit_id": "7",
        "orbit_determination_date": "2017-04-06 08:48:09",
        "first_observation_date": "2012-11-02",
        "last_observation_date": "2012-11-07",
        "data_arc_in_days": 5,
        "observations_used": 35,
        "orbit_uncertainty": "8",
        "minimum_orbit_intersection": ".0810818",
        "jupiter_tisserand_invariant": "4.831",
        "epoch_osculation": "2456237.5",
        "eccentricity": ".298239747158279",
        "semi_major_axis": "1.341765385188853",
        "inclination": "10.6949298845356",
        "ascending_node_longitude": "36.40498949921056",
        "orbital_period": "567.6926907060275",
        "perihelion_distance": ".9415976159643986",
        "perihelion_argument": "284.169720791434",
        "aphelion_distance": "1.741933154413307",
        "perihelion_time": "2456160.234625425349",
        "mean_anomaly": "48.99752155040214",
        "mean_motion": ".6341459136144162",
        "equinox": "J2000",
        "orbit_class": {
            "orbit_class_type": "APO",
            "orbit_class_description": "Near-Earth asteroid orbits which cross the Earth’s orbit similar to that of 1862 Apollo",
            "orbit_class_range": "a (semi-major axis) > 1.0 AU; q (perihelion) < 1.017 AU"
        }
    },
    "is_sentry_object": false
}